{
  "type": "FeatureCollection",
  "features": [
    {
      "type": "Feature",
      "properties": {
        "norad_id": 30110,
        "name": "FENGYUN 1C DEB",
        "group": "fengyun-1c-debris",
        "lat": -13.973288646817625,
        "lon": -78.35185659947776,
        "alt_km": 1192.3178692984511,
        "timestamp": "2025-12-21T22:41:41.733818+00:00",
        "meta_object_name": "FENGYUN 1C DEB",
        "meta_object_id": "1999-025RP",
        "meta_epoch": "2025-12-21T05:47:18.021984",
        "meta_mean_motion": 13.56228244,
        "meta_eccentricity": 0.0267297,
        "meta_inclination": 98.9078,
        "meta_ra_of_asc_node": 103.2469,
        "meta_arg_of_pericenter": 331.1349,
        "meta_mean_anomaly": 27.5224,
        "meta_ephemeris_type": 0,
        "meta_classification_type": "U",
        "meta_norad_cat_id": 30110,
        "meta_element_set_no": 999,
        "meta_rev_at_epoch": 93630,
        "meta_bstar": 0.0002485,
        "meta_mean_motion_dot": 1.8e-06,
        "meta_mean_motion_ddot": 0,
        "tle_line1": "1 30110U 99025RP  25355.24118081  .00000180  00000+0  24850-3 0  9995",
        "tle_line2": "2 30110  98.9078 103.2469 0267297 331.1349  27.5224 13.56228244936300"
      },
      "geometry": {
        "type": "Point",
        "coordinates": [
          -78.35185659947776,
          -13.973288646817625
        ]
      }
    },
    {
      "type": "Feature",
      "properties": {
        "norad_id": 30112,
        "name": "FENGYUN 1C DEB",
        "group": "fengyun-1c-debris",
        "lat": 49.31174358061399,
        "lon": -40.58546764662354,
        "alt_km": 688.2635359147553,
        "timestamp": "2025-12-21T22:41:41.733828+00:00",
        "meta_object_name": "FENGYUN 1C DEB",
        "meta_object_id": "1999-025RR",
        "meta_epoch": "2025-12-21T10:38:45.636000",
        "meta_mean_motion": 14.22245971,
        "meta_eccentricity": 0.02019072,
        "meta_inclination": 99.2823,
        "meta_ra_of_asc_node": 329.8513,
        "meta_arg_of_pericenter": 82.9853,
        "meta_mean_anomaly": 279.4239,
        "meta_ephemeris_type": 0,
        "meta_classification_type": "U",
        "meta_norad_cat_id": 30112,
        "meta_element_set_no": 999,
        "meta_rev_at_epoch": 97706,
        "meta_bstar": 0.00046707144,
        "meta_mean_motion_dot": 1.226e-05,
        "meta_mean_motion_ddot": 0,
        "tle_line1": "1 30112U 99025RR  25355.44358375  .00001226  00000+0  46707-3 0  9998",
        "tle_line2": "2 30112  99.2823 329.8513 0201907  82.9853 279.4239 14.22245971977069"
      },
      "geometry": {
        "type": "Point",
        "coordinates": [
          -40.58546764662354,
          49.31174358061399
        ]
      }
    },
    {
      "type": "Feature",
      "properties": {
        "norad_id": 30113,
        "name": "FENGYUN 1C DEB",
        "group": "fengyun-1c-debris",
        "lat": -22.81317734931656,
        "lon": -147.44219324299416,
        "alt_km": 717.1278764075587,
        "timestamp": "2025-12-21T22:41:41.733838+00:00",
        "meta_object_name": "FENGYUN 1C DEB",
        "meta_object_id": "1999-025RS",
        "meta_epoch": "2025-12-21T12:58:15.458880",
        "meta_mean_motion": 14.4542907,
        "meta_eccentricity": 0.0040537,
        "meta_inclination": 99.037,
        "meta_ra_of_asc_node": 208.2883,
        "meta_arg_of_pericenter": 336.5683,
        "meta_mean_anomaly": 53.3219,
        "meta_ephemeris_type": 0,
        "meta_classification_type": "U",
        "meta_norad_cat_id": 30113,
        "meta_element_set_no": 999,
        "meta_rev_at_epoch": 98036,
        "meta_bstar": 0.0014554833,
        "meta_mean_motion_dot": 5.128e-05,
        "meta_mean_motion_ddot": 0,
        "tle_line1": "1 30113U 99025RS  25355.54045670  .00005128  00000+0  14555-2 0  9991",
        "tle_line2": "2 30113  99.0370 208.2883 0040537 336.5683  53.3219 14.45429070980367"
      },
      "geometry": {
        "type": "Point",
        "coordinates": [
          -147.44219324299416,
          -22.81317734931656
        ]
      }
    },
    {
      "type": "Feature",
      "properties": {
        "norad_id": 30114,
        "name": "FENGYUN 1C DEB",
        "group": "fengyun-1c-debris",
        "lat": 20.632396190261854,
        "lon": -5.277009238106101,
        "alt_km": 842.5863047609773,
        "timestamp": "2025-12-21T22:41:41.733849+00:00",
        "meta_object_name": "FENGYUN 1C DEB",
        "meta_object_id": "1999-025RT",
        "meta_epoch": "2025-12-21T12:55:18.668064",
        "meta_mean_motion": 14.096582,
        "meta_eccentricity": 0.00823547,
        "meta_inclination": 98.7469,
        "meta_ra_of_asc_node": 357.6505,
        "meta_arg_of_pericenter": 95.1844,
        "meta_mean_anomaly": 21.3567,
        "meta_ephemeris_type": 0,
        "meta_classification_type": "U",
        "meta_norad_cat_id": 30114,
        "meta_element_set_no": 999,
        "meta_rev_at_epoch": 97278,
        "meta_bstar": 0.00021392128,
        "meta_mean_motion_dot": 3.45e-06,
        "meta_mean_motion_ddot": 0,
        "tle_line1": "1 30114U 99025RT  25355.53841051  .00000345  00000+0  21392-3 0  9992",
        "tle_line2": "2 30114  98.7469 357.6505 0082354  95.1844  21.3567 14.09658200972780"
      },
      "geometry": {
        "type": "Point",
        "coordinates": [
          -5.277009238106101,
          20.632396190261854
        ]
      }
    },
    {
      "type": "Feature",
      "properties": {
        "norad_id": 30115,
        "name": "FENGYUN 1C DEB",
        "group": "fengyun-1c-debris",
        "lat": 66.7054432341497,
        "lon": 2.3590287116374493,
        "alt_km": 779.123743451697,
        "timestamp": "2025-12-21T22:41:41.733859+00:00",
        "meta_object_name": "FENGYUN 1C DEB",
        "meta_object_id": "1999-025RU",
        "meta_epoch": "2025-12-21T12:57:20.627712",
        "meta_mean_motion": 14.19810184,
        "meta_eccentricity": 0.00673811,
        "meta_inclination": 98.6218,
        "meta_ra_of_asc_node": 22.5971,
        "meta_arg_of_pericenter": 35.4569,
        "meta_mean_anomaly": 119.4303,
        "meta_ephemeris_type": 0,
        "meta_classification_type": "U",
        "meta_norad_cat_id": 30115,
        "meta_element_set_no": 999,
        "meta_rev_at_epoch": 97453,
        "meta_bstar": 0.00076149187,
        "meta_mean_motion_dot": 1.608e-05,
        "meta_mean_motion_ddot": 0,
        "tle_line1": "1 30115U 99025RU  25355.53982208  .00001608  00000+0  76149-3 0  9996",
        "tle_line2": "2 30115  98.6218  22.5971 0067381  35.4569 119.4303 14.19810184974535"
      },
      "geometry": {
        "type": "Point",
        "coordinates": [
          2.3590287116374493,
          66.7054432341497
        ]
      }
    },
    {
      "type": "Feature",
      "properties": {
        "norad_id": 30116,
        "name": "FENGYUN 1C DEB",
        "group": "fengyun-1c-debris",
        "lat": -50.89990401538775,
        "lon": 79.45118140030293,
        "alt_km": 786.0575349030169,
        "timestamp": "2025-12-21T22:41:41.733869+00:00",
        "meta_object_name": "FENGYUN 1C DEB",
        "meta_object_id": "1999-025RV",
        "meta_epoch": "2025-12-21T04:44:20.367744",
        "meta_mean_motion": 14.29333788,
        "meta_eccentricity": 0.00206814,
        "meta_inclination": 99.3973,
        "meta_ra_of_asc_node": 66.8871,
        "meta_arg_of_pericenter": 316.3196,
        "meta_mean_anomaly": 104.2973,
        "meta_ephemeris_type": 0,
        "meta_classification_type": "U",
        "meta_norad_cat_id": 30116,
        "meta_element_set_no": 999,
        "meta_rev_at_epoch": 97630,
        "meta_bstar": 0.00092988779,
        "meta_mean_motion_dot": 2.323e-05,
        "meta_mean_motion_ddot": 0,
        "tle_line1": "1 30116U 99025RV  25355.19745796  .00002323  00000+0  92989-3 0  9993",
        "tle_line2": "2 30116  99.3973  66.8871 0020681 316.3196 104.2973 14.29333788976304"
      },
      "geometry": {
        "type": "Point",
        "coordinates": [
          79.45118140030293,
          -50.89990401538775
        ]
      }
    },
    {
      "type": "Feature",
      "properties": {
        "norad_id": 30117,
        "name": "FENGYUN 1C DEB",
        "group": "fengyun-1c-debris",
        "lat": -35.45478064751282,
        "lon": 157.82346020778903,
        "alt_km": 774.5977778076603,
        "timestamp": "2025-12-21T22:41:41.733879+00:00",
        "meta_object_name": "FENGYUN 1C DEB",
        "meta_object_id": "1999-025RW",
        "meta_epoch": "2025-12-21T12:04:00.302592",
        "meta_mean_motion": 14.07167387,
        "meta_eccentricity": 0.01640537,
        "meta_inclination": 98.8048,
        "meta_ra_of_asc_node": 343.7286,
        "meta_arg_of_pericenter": 184.4485,
        "meta_mean_anomaly": 308.2927,
        "meta_ephemeris_type": 0,
        "meta_classification_type": "U",
        "meta_norad_cat_id": 30117,
        "meta_element_set_no": 999,
        "meta_rev_at_epoch": 97112,
        "meta_bstar": 0.0002548218,
        "meta_mean_motion_dot": 4.4e-06,
        "meta_mean_motion_ddot": 0,
        "tle_line1": "1 30117U 99025RW  25355.50278128  .00000440  00000+0  25482-3 0  9991",
        "tle_line2": "2 30117  98.8048 343.7286 0164053 184.4485 308.2927 14.07167387971122"
      },
      "geometry": {
        "type": "Point",
        "coordinates": [
          157.82346020778903,
          -35.45478064751282
        ]
      }
    }
  ]
}